#dP2023  6 16  0  0  0.00000000      96 __u+U ITR00 FIT  IAC
## 2266 432000.00000000   900.00000000 60111 0.0000000000000
+  119   C06C07C08C09C10C11C12C13C14C16C19C20C21C22C23C24C25
+        C26C27C28C29C30C32C33C34C35C36C37C38C39C40C41C42C43
+        C44C45C46E02E03E04E05E07E08E09E10E11E12E13E14E15E18
+        E19E21E24E25E26E27E30E31E33E34E36G01G02G03G04G05G06
+        G07G08G09G10G11G12G13G14G15G16G17G18G19G20G21G22G23
+        G24G25G26G27G28G29G30G31G32J02J03J04R01R02R03R04R05
+        R07R08R09R11R12R13R14R15R16R17R18R19R20R21R22R24R25
++         7  9  8  9  8  7  6  0  6  7  7  8  7  6  7  6  6
++         8  7  7  5  7  6  6  7  7  7  7  8  9  9  7  7  8
++         5  5  7  6  6  6  6  4  6  6  6  6  4  7  4  7  5
++         6  6  5  6  6  6  6  6  5  5  6  6  6  6  6  5  5
++         7  5  6  5  5  6  6  6  6  6  6  7  6  7  6  6  6
++         6  5  6  4  5  6  6  6  5  6  8  7  6  6  7  7  6
++         5  6  6  6  6  6  6  7  7  6  8  5  7  7  7  7  6
%c M  cc GPS ccc cccc cccc cccc cccc ccccc ccccc ccccc ccccc
%c cc cc ccc ccc cccc cccc cccc cccc ccccc ccccc ccccc ccccc
%f  0.0000000  0.000000000  0.00000000000  0.000000000000000
%f  0.0000000  0.000000000  0.00000000000  0.000000000000000
%i    0    0    0    0      0      0      0      0         0
%i    0    0    0    0      0      0      0      0         0
/* INFORMATION & ANALYSIS CENTER (IAC)      ULTRA-RAPID DATA
/* S/V CLOCKS ARE ALIGNED TO GNSS TIME                      
/* G:C1WC2W R:C1PC2P E:C1XC5X C:C2IC6I J:C1CC2S             
/* PCV:IGS20_2247 OL/AL:FES2004  NONE     YN ORB:CoN CLK:CoN
*  2023 06 16  1 30  0.00000000
PC06  -2408.413253  35320.153865 -22638.544662   -177.227567
PC07 -11638.004411  26426.940251  30736.789379   -178.705377
PC08 -16994.148846  36813.351578 -11921.726088    458.096649
PC09   4674.451903  39177.135158 -13598.853804    529.523125
PC10  -2657.563388  27389.410746  32215.786681    -87.169484
PC11  13401.422705  -7604.284681 -23207.141668    676.285745
PC12  20487.537947  11109.575641 -15326.670391    715.845350
PC13 -10505.514601  36729.976995 -17992.142595 999999.999999
PC14  23887.912663 -10108.625833  10394.559521    416.365320
PC16  -3231.892090  34160.628350 -24070.205804     41.577891
PC19 -16232.359536  14127.074535 -17726.388608   -923.878548
PC20 -27182.925658   5410.726606  -3057.950105    500.386195
PC21  22587.490983   7327.448387 -14668.630970   -923.892520
PC22   4680.416123  15169.671521 -22953.666749   -439.091276
PC23   1571.188053 -25250.708025 -11767.204181   -959.215270
PC24  18506.811959  -7588.632645  19445.369005     67.025867
PC25  13195.829868 -24145.514928   4584.688927    148.220877
PC26  12757.157149  11092.254354  22195.119116   -135.327842
PC27 -19993.214448 -17693.720451   8114.234485    155.766675
PC28 -10799.334971 -24382.432923  -8217.430554    115.719497
PC29  -5759.669759  16858.692874  21468.775415    134.597172
PC30 -18993.871482   -947.679100  20416.789604     -1.235308
PC32 -22541.159714  -7240.862328  14771.621617   -548.461224
PC33  16269.525199 -14235.549117  17664.612934   -896.032806
PC34  18414.322470   -465.996346 -20973.600837    194.021133
PC35  11223.488071  23994.664624   8706.872345    607.135974
PC36 -14123.884582  23481.328939  -5265.469173   -381.016994
PC37 -11883.883101 -12418.229966 -21964.330321   -785.883976
PC38 -20609.237354  36680.592930  -3749.500519     85.386707
PC39  -5641.039842  30915.241410 -27931.596490     -3.333115
PC40 -16539.386534  20111.379594  33099.772656    -26.368434
PC41  -3893.259805 -15360.117117  23022.835292   -920.456694
PC42  27480.405384  -4648.720864   1762.863215   -647.924748
PC43   6609.199039 -16305.181200 -21679.049723     26.379442
PC44  20647.284706  16986.603084  -7960.432879    139.415839
PC45  -1270.371267  25059.381570  12237.971927   -110.854127
PC46 -18523.074733   9214.963167 -18740.782603    -61.826222
PE02    319.100371  18810.404964  22853.783443     44.290730
PE03  12438.226401  19833.742056 -18119.649041    -26.782565
PE04 -26234.403973 -13590.590200   1761.687102   -145.706104
PE05  -8949.968664  14551.632527 -24163.811695    -57.614466
PE07  25030.592803   -585.879208  15810.563088    -52.967388
PE08  26155.168182  13721.035507  -2073.923631    -99.638021
PE09 -25051.813369    408.044722 -15739.187150    -51.579591
PE10 -16140.821986  -5085.575361  24270.784913   -541.517653
PE11 -15161.736965   7341.108008  24319.462929   2232.976198
PE12 -14633.611176 -15674.891820  20401.915410   -581.379904
PE13  15249.930361  -6510.492142 -24524.778992    -19.275697
PE14  -4930.920076 -20683.766765 -18327.255440    255.274972
PE15  14508.768679  15982.095254 -20253.758843    -29.785455
PE18  21482.508362  19423.931824   6504.981860    186.709817
PE19  -9738.492217 -19753.760222  19787.862226  -2290.289171
PE21  17427.625842 -21266.303847 -10966.738931   -535.235549
PE24 -26176.189318  10903.610465  -8533.428564   -157.278595
PE25 -17686.947828  21202.228424  10674.354178   -606.824601
PE26   6746.781157 -25355.563322 -13705.488715    135.321664
PE27  26092.477602 -11526.995552   7901.695854    -75.707585
PE30  18933.450778   5431.337181  22085.504861   -258.825986
PE31 -19298.779253  -4882.498513 -21898.099258   -525.977016
PE33  -5202.897540 -28860.722738   4054.501768   -443.108352
PE34   5359.037796  28808.995433  -4222.093119    -51.038900
PE36  -7054.748129  24884.679883  14379.262304    -71.881159
PG01 -13297.485080   9078.032487  20704.072607    178.142750
PG02 -15027.746230   3029.198808  22190.787663   -585.399345
PG03 -23051.778670  12750.780509   2688.616639   -268.935605
PG04 -18969.946269   3963.162240 -18200.202626     69.444167
PG05  20729.829274   -531.220267 -16840.442550   -131.268636
PG06   5386.829080  25088.721215  -6598.644494    584.800255
PG07  -6810.013366  22678.697008 -11059.862254    151.198158
PG08 -24746.114065  -4902.513665   8847.926451   -127.602683
PG09  -9801.547021  12166.783242 -21554.005520   -134.802441
PG10   1852.499021 -17325.771380  20126.537347    -41.332156
PG11  12679.787542  14494.374076 -18304.056609   -237.189885
PG12  24230.737962  -9232.708036   5270.281297   -389.095600
PG13  22874.838526  13287.569488   3239.688388    534.552572
PG14  -5398.335465  18516.110087  18208.278879     91.945443
PG15  25001.981111   1755.450432   8709.350556     49.235448
PG16 -18719.219654  -4758.595568 -18729.215331   -491.048091
PG17   6183.986097  18326.249233  18585.088020    718.481157
PG18   5264.736449 -24375.644588  -8907.140349   -309.195608
PG19  13938.319743  19059.163796  12245.924618    331.134608
PG20  14475.302464   7152.080247 -21024.795818    427.785446
PG21 -15678.984450  -1255.427332  22012.586432    153.065544
PG22 -16247.325426 -18609.761416  10413.838241    498.493761
PG23  13695.100748 -19281.420969  11932.358640     33.587956
PG24  15066.652225  -4543.772751  21008.480992   -226.243322
PG25  19044.942942 -17512.791631  -5658.254349    450.065358
PG26  -9119.429509 -12962.985579 -21424.644709    238.941633
PG27 -23202.876715 -13268.809419  -1993.866920     15.683453
PG28  -5442.792390 -25589.857159  -4617.478618     83.294168
PG29  12583.569530  -9357.543078 -21506.276824   -602.919492
PG30   -128.033882  26349.825699  -1709.843343   -510.763063
PG31 -11312.585798 -18513.217745 -15198.298764   -218.247814
PG32  -9860.517923 -18191.807592  16944.794603   -501.102528
PJ02 -30619.791767  28554.019084   9811.971839     -0.566484
PJ03 -25010.783145  25525.299346  27441.397843      6.628869
PJ04 -32683.061998  21354.324077 -10664.206548     95.447640
PR01   3706.645345  10989.257001 -22716.924215     59.513167
PR02  20694.957077   7479.028932 -12800.945498    -22.698490
PR03  25116.004558   -474.926616   4312.539857     79.755261
PR04  15617.515909  -7626.964394  18697.752712    191.365160
PR05  -2325.311963 -10871.918902  22972.925411    114.231286
PR07 -25021.255645    766.398146  -4981.874458     58.131185
PR08 -15468.112408   7828.145214 -18661.933454    -71.281888
PR09  -8238.988935  -8068.061183 -22736.596566    126.027402
PR11 -15132.246649  20149.376353  -3885.850437    -80.675401
PR12  -4988.754896  20371.485043  14555.372576     28.181421
PR13   6695.118023   9695.803828  22613.185865    -36.139589
PR14  15985.651201  -8780.019482  17859.829529     24.795840
PR15  14968.197135 -20492.101388   2656.476128     88.567681
PR16   5181.847178 -20498.606595 -14284.384297     15.681517
PR17  12795.439236   3554.009300 -21786.264744    639.384007
PR18   4614.916608 -12844.419696 -21553.386618     86.810442
PR19  -4318.298989 -22363.331187 -11488.040249   -236.420899
PR20 -13198.550065 -19832.919792   9173.194259    -94.817352
PR21 -12214.915477  -2196.118401  22272.966518    -15.547816
PR22  -4872.811315  13608.118271  21035.175813     81.273523
PR24  14165.600469  18896.545689  -9651.812379    -12.020660
PR25 -12900.978323  -4077.894327  21619.557725     59.298598
EOF
